[
  {
    "name": "KUIPER-00527",
    "noradId": "69269",
    "line1": "1 69269U 26118C   26201.25004630 -.00092624  00000+0 -49223-2 0  9997",
    "line2": "2 69269  51.8795 254.8128 0008824 303.8339 199.7533 15.15124041  2722"
  },
  {
    "name": "KUIPER-00562",
    "noradId": "69270",
    "line1": "1 69270U 26118D   26200.40737499  .00010865  00000+0  29465-3 0  9993",
    "line2": "2 69270  51.8714 257.1249 0000669  31.5336 328.5691 15.38149899  8946"
  },
  {
    "name": "KUIPER-00570",
    "noradId": "69271",
    "line1": "1 69271U 26118E   26201.25004630 -.00072628  00000+0 -69681-2 0  9992",
    "line2": "2 69271  51.8914 257.4969 0007114 329.9916 229.0978 14.92954865  4407"
  },
  {
    "name": "KUIPER-00572",
    "noradId": "69272",
    "line1": "1 69272U 26118F   26201.25004630 -.00043392  00000+0 -23418-2 0  9997",
    "line2": "2 69272  51.8784 254.4663 0004789 309.3959  23.8862 15.14236753  3422"
  },
  {
    "name": "KUIPER-00581",
    "noradId": "69273",
    "line1": "1 69273U 26118G   26201.25004630 -.00078659  00000+0 -81411-2 0  9999",
    "line2": "2 69273  51.8975 257.2299 0006527 284.9563  76.7441 14.89988692  3384"
  },
  {
    "name": "KUIPER-00584",
    "noradId": "69274",
    "line1": "1 69274U 26118H   26201.25004630 -.00078289  00000+0 -95454-2 0  9991",
    "line2": "2 69274  51.9000 259.6127 0008883 318.4018 254.6379 14.83307154  5635"
  },
  {
    "name": "KUIPER-00587",
    "noradId": "69275",
    "line1": "1 69275U 26118J   26201.25004630 -.00033273  00000+0 -11186-2 0  9996",
    "line2": "2 69275  51.8658 253.7076 0007610 318.6944  61.7053 15.30067319  5577"
  },
  {
    "name": "KUIPER-00590",
    "noradId": "69276",
    "line1": "1 69276U 26118K   26201.25004630 -.00046669  00000+0 -34436-2 0  9993",
    "line2": "2 69276  51.8885 255.4849 0002256 358.7168 282.3860 15.02872519  3638"
  },
  {
    "name": "KUIPER-00592",
    "noradId": "69277",
    "line1": "1 69277U 26118L   26201.25004630 -.00042358  00000+0 -28542-2 0  9996",
    "line2": "2 69277  51.8831 255.0728 0002701 206.0520 294.8448 15.06209644  5262"
  },
  {
    "name": "KUIPER-00593",
    "noradId": "69278",
    "line1": "1 69278U 26118M   26200.47237661  .00016662  00000+0  43687-3 0  9997",
    "line2": "2 69278  51.8698 256.8139 0003105 298.4630  61.6044 15.38788388  9016"
  },
  {
    "name": "KUIPER-00594",
    "noradId": "69279",
    "line1": "1 69279U 26118N   26200.86612146  .00012068  00000+0  33296-3 0  9997",
    "line2": "2 69279  51.8717 254.9494 0002079  73.2252 286.8963 15.37502032  9010"
  },
  {
    "name": "KUIPER-00595",
    "noradId": "69280",
    "line1": "1 69280U 26118P   26200.47870943  .00012306  00000+0  33903-3 0  9997",
    "line2": "2 69280  51.8714 256.8534 0001118  12.3991 347.7023 15.37525413  8989"
  },
  {
    "name": "KUIPER-00596",
    "noradId": "69281",
    "line1": "1 69281U 26118Q   26201.25004630 -.00082644  00000+0 -10191-1 0  9993",
    "line2": "2 69281  51.9017 259.4909 0009592 316.7239 351.1734 14.82867780  5892"
  },
  {
    "name": "KUIPER-00597",
    "noradId": "69282",
    "line1": "1 69282U 26118R   26200.95941926  .00015265  00000+0  41327-3 0  9998",
    "line2": "2 69282  51.8636 254.7964 0006055 305.7448  54.2975 15.37858278  9029"
  },
  {
    "name": "KUIPER-00599",
    "noradId": "69283",
    "line1": "1 69283U 26118S   26201.25004630 -.01149353  00000+0 -45847-1 0  9993",
    "line2": "2 69283  51.8737 253.5913 0005776 303.0910 159.5721 15.27765074  4200"
  },
  {
    "name": "KUIPER-00600",
    "noradId": "69284",
    "line1": "1 69284U 26118T   26200.58077438  .00009603  00000+0  26691-3 0  9993",
    "line2": "2 69284  51.8626 256.7525 0008071 306.0992  53.9246 15.37511985  8963"
  },
  {
    "name": "KUIPER-00601",
    "noradId": "69285",
    "line1": "1 69285U 26118U   26201.25004630 -.00047200  00000+0 -32803-2 0  9991",
    "line2": "2 69285  51.8891 255.2329 0001728 352.5718 359.0395 15.05116796  4819"
  },
  {
    "name": "KUIPER-00602",
    "noradId": "69286",
    "line1": "1 69286U 26118V   26200.47521994  .00011160  00000+0  31076-3 0  9998",
    "line2": "2 69286  51.8694 256.8283 0002597 309.3039  50.7718 15.37296459  8951"
  },
  {
    "name": "KUIPER-00603",
    "noradId": "69287",
    "line1": "1 69287U 26118W   26201.25004630 -.00018494  00000+0 -65569-3 0  9992",
    "line2": "2 69287  51.8722 253.4807 0003010 294.4189 180.4834 15.28032418  4993"
  },
  {
    "name": "KUIPER-00605",
    "noradId": "69288",
    "line1": "1 69288U 26118X   26201.25004630 -.00072082  00000+0 -69371-2 0  9990",
    "line2": "2 69288  51.8936 257.3055 0004517 359.1612 114.2668 14.92842082  4358"
  },
  {
    "name": "KUIPER-00606",
    "noradId": "69289",
    "line1": "1 69289U 26118Y   26201.25004630 -.01247838  00000+0 -50659-1 0  9993",
    "line2": "2 69289  51.8769 253.4330 0002111 295.1253 221.2147 15.26983274  5320"
  },
  {
    "name": "KUIPER-00607",
    "noradId": "69290",
    "line1": "1 69290U 26118Z   26201.14375560  .00012339  00000+0  33423-3 0  9991",
    "line2": "2 69290  51.8665 253.7967 0004921 296.8723  63.1760 15.38045934  9050"
  },
  {
    "name": "KUIPER-00608",
    "noradId": "69291",
    "line1": "1 69291U 26118AA  26200.45032855 -.00046011  00000+0 -13878-2 0  9999",
    "line2": "2 69291  51.8584 258.0929 0009425 314.5641  45.4573 15.33655238  8938"
  },
  {
    "name": "KUIPER-00610",
    "noradId": "69292",
    "line1": "1 69292U 26118AB  26201.24775114 -.00328402  00000+0 -92677-2 0  9991",
    "line2": "2 69292  51.8713 253.0122 0001245 331.4334  28.6585 15.37158920  9074"
  },
  {
    "name": "KUIPER-00613",
    "noradId": "69293",
    "line1": "1 69293U 26118AC  26201.25004630 -.00070079  00000+0 -68935-2 0  9995",
    "line2": "2 69293  51.8930 257.2798 0010994 308.4426 105.9600 14.91917476  5013"
  },
  {
    "name": "KUIPER-00618",
    "noradId": "69294",
    "line1": "1 69294U 26118AD  26200.54509588  .00009577  00000+0  26544-3 0  9993",
    "line2": "2 69294  51.8719 256.5491 0001085 334.8947  25.1987 15.37623693  8967"
  },
  {
    "name": "KUIPER-00620",
    "noradId": "69295",
    "line1": "1 69295U 26118AE  26201.24654255 -.00418181  00000+0 -11879-1 0  9994",
    "line2": "2 69295  51.8700 253.0054 0001732 318.1119  41.9734 15.37321976  9078"
  },
  {
    "name": "KUIPER-00423",
    "noradId": "69592",
    "line1": "1 69592U 26140A   26200.46954294  .00023692  00000+0  61946-3 0  9997",
    "line2": "2 69592  51.8792 242.3489 0013853 285.8815  74.0645 15.38546886  6202"
  },
  {
    "name": "KUIPER-00428",
    "noradId": "69593",
    "line1": "1 69593U 26140B   26200.83764758  .00010391  00000+0  29257-3 0  9994",
    "line2": "2 69593  51.8791 241.0549 0007998  45.1904 314.9732 15.37013978  6252"
  },
  {
    "name": "KUIPER-00481",
    "noradId": "69594",
    "line1": "1 69594U 26140C   26201.00002315  .00055995  00000+0  14719-2 0  9994",
    "line2": "2 69594  51.8762 239.9178 0010787 297.9897  51.0703 15.37994022  5729"
  },
  {
    "name": "KUIPER-00490",
    "noradId": "69595",
    "line1": "1 69595U 26140D   26200.49212776 -.00004955  00000+0 -12012-3 0  9998",
    "line2": "2 69595  51.8765 242.4843 0007134 355.0553   5.0363 15.37967412  6206"
  },
  {
    "name": "KUIPER-00493",
    "noradId": "69596",
    "line1": "1 69596U 26140E   26201.25004630 -.01241164  00000+0 -44160-1 0  9995",
    "line2": "2 69596  51.8823 239.2012 0008758  55.5304 357.9295 15.31158688  5723"
  },
  {
    "name": "KUIPER-00496",
    "noradId": "69597",
    "line1": "1 69597U 26140F   26201.13621188 -.00006943  00000+0 -19598-3 0  9998",
    "line2": "2 69597  51.8775 240.0392 0010709  65.3945 294.8155 15.34044595  6291"
  },
  {
    "name": "KUIPER-00513",
    "noradId": "69598",
    "line1": "1 69598U 26140G   26201.13796995  .00013702  00000+0  36764-3 0  9991",
    "line2": "2 69598  51.8796 239.3262 0007791 357.0807   3.0134 15.38223985  6302"
  },
  {
    "name": "KUIPER-00516",
    "noradId": "69599",
    "line1": "1 69599U 26140H   26200.82311096  .00012991  00000+0  35558-3 0  9991",
    "line2": "2 69599  51.8790 240.9534 0007417  11.4278 348.6876 15.37659267  6255"
  },
  {
    "name": "KUIPER-00517",
    "noradId": "69600",
    "line1": "1 69600U 26140J   26200.53637817  .00013564  00000+0  35677-3 0  9993",
    "line2": "2 69600  51.8758 242.0390 0011246 311.9337  48.0691 15.38819819  6218"
  },
  {
    "name": "KUIPER-00520",
    "noradId": "69601",
    "line1": "1 69601U 26140K   26200.43387754  .00019175  00000+0  51863-3 0  9994",
    "line2": "2 69601  51.8804 242.8577 0006925   8.4448 351.6654 15.37708901  6192"
  },
  {
    "name": "KUIPER-00522",
    "noradId": "69602",
    "line1": "1 69602U 26140L   26200.53361251  .00012465  00000+0  33031-3 0  9992",
    "line2": "2 69602  51.8766 242.0251 0013147 283.3079  76.6442 15.38651516  6211"
  },
  {
    "name": "KUIPER-00528",
    "noradId": "69603",
    "line1": "1 69603U 26140M   26200.82703874  .00009702  00000+0  26985-3 0  9996",
    "line2": "2 69603  51.8754 240.9809 0005900  17.3134 342.8053 15.37490714  6250"
  },
  {
    "name": "KUIPER-00532",
    "noradId": "69604",
    "line1": "1 69604U 26140N   26200.38589896  .00009674  00000+0  27728-3 0  9998",
    "line2": "2 69604  51.8794 243.2657 0004899  54.4461 305.6982 15.36553619  6186"
  },
  {
    "name": "KUIPER-00533",
    "noradId": "69605",
    "line1": "1 69605U 26140P   26200.80879915  .00012049  00000+0  32338-3 0  9993",
    "line2": "2 69605  51.8761 240.8622 0008445 344.1922  15.8800 15.38336531  6259"
  },
  {
    "name": "KUIPER-00534",
    "noradId": "69606",
    "line1": "1 69606U 26140Q   26200.52809859  .00015376  00000+0  40297-3 0  9992",
    "line2": "2 69606  51.8798 241.9972 0013609 285.2739  74.6743 15.38790512  6217"
  },
  {
    "name": "KUIPER-00537",
    "noradId": "69607",
    "line1": "1 69607U 26140R   26201.25004630 -.02079529  00000+0 -70882-1 0  9993",
    "line2": "2 69607  51.8787 239.4867 0009857  75.1434 204.6308 15.33076605  5620"
  }
]